{
  "type": "FeatureCollection",
  "features": [
    {
      "type": "Feature",
      "properties": {
        "norad_id": 67017,
        "name": "STARLINK-35498",
        "group": "last-30-days",
        "lat": -58.251197352511845,
        "lon": -95.43211746078998,
        "alt_km": 302.14276555453216,
        "timestamp": "2025-12-20T16:47:35.026479+00:00",
        "meta_object_name": "STARLINK-35498",
        "meta_object_id": "2025-293Q",
        "meta_epoch": "2025-12-20T12:00:02.000160",
        "meta_mean_motion": 15.92095107,
        "meta_eccentricity": 0.0003842,
        "meta_inclination": 69.9931,
        "meta_ra_of_asc_node": 301.2233,
        "meta_arg_of_pericenter": 268.5314,
        "meta_mean_anomaly": 322.7044,
        "meta_ephemeris_type": 0,
        "meta_classification_type": "U",
        "meta_norad_cat_id": 67017,
        "meta_element_set_no": 999,
        "meta_rev_at_epoch": 155,
        "meta_bstar": -0.0041367,
        "meta_mean_motion_dot": -0.01375975,
        "meta_mean_motion_ddot": 0.00054527,
        "tle_line1": "1 67017U 25293Q   25354.50002315 -.01375975  54527-3 -41367-2 0  9995",
        "tle_line2": "2 67017  69.9931 301.2233 0003842 268.5314 322.7044 15.92095107  1552"
      },
      "geometry": {
        "type": "Point",
        "coordinates": [
          -95.43211746078998,
          -58.251197352511845
        ]
      }
    },
    {
      "type": "Feature",
      "properties": {
        "norad_id": 67018,
        "name": "STARLINK-36106",
        "group": "last-30-days",
        "lat": -56.37222403123271,
        "lon": -92.58001556268067,
        "alt_km": 302.0108699352895,
        "timestamp": "2025-12-20T16:47:35.026489+00:00",
        "meta_object_name": "STARLINK-36106",
        "meta_object_id": "2025-293R",
        "meta_epoch": "2025-12-20T12:00:02.000160",
        "meta_mean_motion": 15.92134351,
        "meta_eccentricity": 0.000388,
        "meta_inclination": 69.9929,
        "meta_ra_of_asc_node": 301.2201,
        "meta_arg_of_pericenter": 269.525,
        "meta_mean_anomaly": 324.1175,
        "meta_ephemeris_type": 0,
        "meta_classification_type": "U",
        "meta_norad_cat_id": 67018,
        "meta_element_set_no": 999,
        "meta_rev_at_epoch": 147,
        "meta_bstar": -0.0041456,
        "meta_mean_motion_dot": -0.01381688,
        "meta_mean_motion_ddot": 0.00054967,
        "tle_line1": "1 67018U 25293R   25354.50002315 -.01381688  54967-3 -41456-2 0  9991",
        "tle_line2": "2 67018  69.9929 301.2201 0003880 269.5250 324.1175 15.92134351  1474"
      },
      "geometry": {
        "type": "Point",
        "coordinates": [
          -92.58001556268067,
          -56.37222403123271
        ]
      }
    },
    {
      "type": "Feature",
      "properties": {
        "norad_id": 67019,
        "name": "STARLINK-35688",
        "group": "last-30-days",
        "lat": -54.569856198857046,
        "lon": -90.17017930979499,
        "alt_km": 301.9782657331689,
        "timestamp": "2025-12-20T16:47:35.026499+00:00",
        "meta_object_name": "STARLINK-35688",
        "meta_object_id": "2025-293S",
        "meta_epoch": "2025-12-20T12:00:02.000160",
        "meta_mean_motion": 15.92172475,
        "meta_eccentricity": 0.0003822,
        "meta_inclination": 69.993,
        "meta_ra_of_asc_node": 301.2174,
        "meta_arg_of_pericenter": 268.5045,
        "meta_mean_anomaly": 327.3758,
        "meta_ephemeris_type": 0,
        "meta_classification_type": "U",
        "meta_norad_cat_id": 67019,
        "meta_element_set_no": 999,
        "meta_rev_at_epoch": 155,
        "meta_bstar": -0.0041466,
        "meta_mean_motion_dot": -0.01384692,
        "meta_mean_motion_ddot": 0.00055208,
        "tle_line1": "1 67019U 25293S   25354.50002315 -.01384692  55208-3 -41466-2 0  9990",
        "tle_line2": "2 67019  69.9930 301.2174 0003822 268.5045 327.3758 15.92172475  1553"
      },
      "geometry": {
        "type": "Point",
        "coordinates": [
          -90.17017930979499,
          -54.569856198857046
        ]
      }
    },
    {
      "type": "Feature",
      "properties": {
        "norad_id": 67020,
        "name": "STARLINK-36172",
        "group": "last-30-days",
        "lat": -52.221015158935984,
        "lon": -87.4072330935637,
        "alt_km": 301.75489104056305,
        "timestamp": "2025-12-20T16:47:35.026509+00:00",
        "meta_object_name": "STARLINK-36172",
        "meta_object_id": "2025-293T",
        "meta_epoch": "2025-12-20T12:00:02.000160",
        "meta_mean_motion": 15.92216907,
        "meta_eccentricity": 0.000388,
        "meta_inclination": 69.9929,
        "meta_ra_of_asc_node": 301.2142,
        "meta_arg_of_pericenter": 271.8016,
        "meta_mean_anomaly": 326.922,
        "meta_ephemeris_type": 0,
        "meta_classification_type": "U",
        "meta_norad_cat_id": 67020,
        "meta_element_set_no": 999,
        "meta_rev_at_epoch": 147,
        "meta_bstar": -0.0041392,
        "meta_mean_motion_dot": -0.01385409,
        "meta_mean_motion_ddot": 0.00055286,
        "tle_line1": "1 67020U 25293T   25354.50002315 -.01385409  55286-3 -41392-2 0  9993",
        "tle_line2": "2 67020  69.9929 301.2142 0003880 271.8016 326.9220 15.92216907  1476"
      },
      "geometry": {
        "type": "Point",
        "coordinates": [
          -87.4072330935637,
          -52.221015158935984
        ]
      }
    },
    {
      "type": "Feature",
      "properties": {
        "norad_id": 67021,
        "name": "STARLINK-36184",
        "group": "last-30-days",
        "lat": -50.02339659843862,
        "lon": -85.1295306011521,
        "alt_km": 301.726656810888,
        "timestamp": "2025-12-20T16:47:35.026522+00:00",
        "meta_object_name": "STARLINK-36184",
        "meta_object_id": "2025-293U",
        "meta_epoch": "2025-12-20T12:00:02.000160",
        "meta_mean_motion": 15.92260982,
        "meta_eccentricity": 0.000384,
        "meta_inclination": 69.993,
        "meta_ra_of_asc_node": 301.2108,
        "meta_arg_of_pericenter": 269.6981,
        "meta_mean_anomaly": 331.62,
        "meta_ephemeris_type": 0,
        "meta_classification_type": "U",
        "meta_norad_cat_id": 67021,
        "meta_element_set_no": 999,
        "meta_rev_at_epoch": 147,
        "meta_bstar": -0.0041624,
        "meta_mean_motion_dot": -0.01396211,
        "meta_mean_motion_ddot": 0.00056108,
        "tle_line1": "1 67021U 25293U   25354.50002315 -.01396211  56108-3 -41624-2 0  9999",
        "tle_line2": "2 67021  69.9930 301.2108 0003840 269.6981 331.6200 15.92260982  1476"
      },
      "geometry": {
        "type": "Point",
        "coordinates": [
          -85.1295306011521,
          -50.02339659843862
        ]
      }
    },
    {
      "type": "Feature",
      "properties": {
        "norad_id": 67022,
        "name": "STARLINK-36209",
        "group": "last-30-days",
        "lat": -47.40022801572681,
        "lon": -82.71770923879143,
        "alt_km": 301.553691960964,
        "timestamp": "2025-12-20T16:47:35.026534+00:00",
        "meta_object_name": "STARLINK-36209",
        "meta_object_id": "2025-293V",
        "meta_epoch": "2025-12-20T12:00:02.000160",
        "meta_mean_motion": 15.92303582,
        "meta_eccentricity": 0.0003912,
        "meta_inclination": 69.9927,
        "meta_ra_of_asc_node": 301.2073,
        "meta_arg_of_pericenter": 270.6313,
        "meta_mean_anomaly": 333.7295,
        "meta_ephemeris_type": 0,
        "meta_classification_type": "U",
        "meta_norad_cat_id": 67022,
        "meta_element_set_no": 999,
        "meta_rev_at_epoch": 147,
        "meta_bstar": -0.0041686,
        "meta_mean_motion_dot": -0.01401376,
        "meta_mean_motion_ddot": 0.00056516,
        "tle_line1": "1 67022U 25293V   25354.50002315 -.01401376  56516-3 -41686-2 0  9990",
        "tle_line2": "2 67022  69.9927 301.2073 0003912 270.6313 333.7295 15.92303582  1476"
      },
      "geometry": {
        "type": "Point",
        "coordinates": [
          -82.71770923879143,
          -47.40022801572681
        ]
      }
    },
    {
      "type": "Feature",
      "properties": {
        "norad_id": 67023,
        "name": "STARLINK-36191",
        "group": "last-30-days",
        "lat": -45.220777269353334,
        "lon": -80.91917267574108,
        "alt_km": 301.37686052320623,
        "timestamp": "2025-12-20T16:47:35.026544+00:00",
        "meta_object_name": "STARLINK-36191",
        "meta_object_id": "2025-293W",
        "meta_epoch": "2025-12-20T12:00:02.000160",
        "meta_mean_motion": 15.92344679,
        "meta_eccentricity": 0.000397,
        "meta_inclination": 69.9928,
        "meta_ra_of_asc_node": 301.2039,
        "meta_arg_of_pericenter": 271.8229,
        "meta_mean_anomaly": 335.0216,
        "meta_ephemeris_type": 0,
        "meta_classification_type": "U",
        "meta_norad_cat_id": 67023,
        "meta_element_set_no": 999,
        "meta_rev_at_epoch": 136,
        "meta_bstar": -0.0041715,
        "meta_mean_motion_dot": -0.01405308,
        "meta_mean_motion_ddot": 0.00056832,
        "tle_line1": "1 67023U 25293W   25354.50002315 -.01405308  56832-3 -41715-2 0  9994",
        "tle_line2": "2 67023  69.9928 301.2039 0003970 271.8229 335.0216 15.92344679  1361"
      },
      "geometry": {
        "type": "Point",
        "coordinates": [
          -80.91917267574108,
          -45.220777269353334
        ]
      }
    }
  ]
}